[{"OBJECT_NAME":"STARLINK-34606","OBJECT_ID":"2025-144G","EPOCH":"2026-03-09T15:00:19.674144","MEAN_MOTION":15.30188216,"ECCENTRICITY":8.54e-5,"INCLINATION":53.1601,"RA_OF_ASC_NODE":181.2267,"ARG_OF_PERICENTER":103.2301,"MEAN_ANOMALY":256.8795,"EPHEMERIS_TYPE":0,"CLASSIFICATION_TYPE":"U","NORAD_CAT_ID":64730,"ELEMENT_SET_NO":999,"REV_AT_EPOCH":3970,"BSTAR":0.0011569,"MEAN_MOTION_DOT":0.00034051,"MEAN_MOTION_DDOT":0},{"OBJECT_NAME":"DMSP 5D-2 F14 DEB","OBJECT_ID":"1997-012G","EPOCH":"2026-03-09T18:05:19.087296","MEAN_MOTION":15.2878374,"ECCENTRICITY":0.00491251,"INCLINATION":99.2047,"RA_OF_ASC_NODE":151.8456,"ARG_OF_PERICENTER":247.1908,"MEAN_ANOMALY":112.4133,"EPHEMERIS_TYPE":0,"CLASSIFICATION_TYPE":"U","NORAD_CAT_ID":62936,"ELEMENT_SET_NO":999,"REV_AT_EPOCH":6425,"BSTAR":0.05046686,"MEAN_MOTION_DOT":0.01624988,"MEAN_MOTION_DDOT":0}]
